EUTELSAT 53A            
1 40277U 14064A   26156.21725707  .00000110  00000+0  00000+0 0  9996
2 40277   0.0152 293.5804 0000722 230.6889 220.5970  1.00272198 41446
GSAT-16                 
1 40332U 14078A   26156.21760374  .00000097  00000+0  00000+0 0  9996
2 40332   0.0605  94.4167 0007912 349.6529 302.9954  1.00271335 41989
DIRECTV 14              
1 40333U 14078B   26155.90187812 -.00000113  00000+0  00000+0 0  9992
2 40333   0.0095 324.1263 0000255 199.1564 315.5074  1.00272349 41926
ASTRA 2G                
1 40364U 14089A   26156.28363360  .00000162  00000+0  00000+0 0  9997
2 40364   0.0482   5.9232 0005184  53.0411 325.0642  1.00269956 41843
MUOS-3                  
1 40374U 15002A   26156.06115969 -.00000117  00000+0  00000+0 0  9991
2 40374   4.4984  43.4727 0051505 178.7076  37.8964  1.00272247 41465
INMARSAT 5-F2           
1 40384U 15005A   26155.48289815 -.00000273  00000+0  00000+0 0  9995
2 40384   0.0181 349.5743 0000640 195.3976 186.7891  1.00273154 40867
ABS-3A                  
1 40424U 15010A   26155.63582852 -.00000015  00000+0  00000+0 0  9994
2 40424   0.0206  68.2195 0001996 318.0086  92.7592  1.00270386 41259
EUTELSAT 115 WEST B     
1 40425U 15010B   26155.61527439 -.00000012  00000+0  00000+0 0  9990
2 40425   0.0091 147.2790 0000634 161.7662  50.6136  1.00265549 41265
EXPRESS-AM7             
1 40505U 15012A   26156.28597361  .00000163  00000+0  00000+0 0  9992
2 40505   0.0119  35.8333 0003325  44.7241 316.1050  1.00272587 40885
BEIDOU-3S IGSO-1S       
1 40549U 15019A   26155.86761368 -.00000162  00000+0  00000+0 0  9990
2 40549  49.2196 295.6097 0038520 191.1886 171.3228  1.00253760 40951
THOR 7                  
1 40613U 15022A   26156.20659701  .00000004  00000+0  00000+0 0  9996
2 40613   0.0081 325.4572 0002781 109.4728 252.4429  1.00272458 40698
TURKMENALEM52E/MONACOSAT
1 40617U 15023A   26156.21699707  .00000116  00000+0  00000+0 0  9996
2 40617   0.0421  80.1397 0003145 352.0216 311.6225  1.00272193 40725
DIRECTV 15              
1 40663U 15026A   26155.97249914 -.00000090  00000+0  00000+0 0  9995
2 40663   0.0173   7.9959 0000127 267.6092 225.0151  1.00272632 40343
SKY MEXICO-1            
1 40664U 15026B   26156.19111441 -.00000222  00000+0  00000+0 0  9991
2 40664   0.0161   8.7312 0002311  81.2136 153.6857  1.00272813 40338
METEOSAT-11 (MSG-4)     
1 40732U 15034A   26156.27990691  .00000075  00000+0  00000+0 0  9992
2 40732   3.1726  71.1753 0001651   4.0129 288.6651  1.00276593  7095
STAR ONE C4             
1 40733U 15034B   26155.69505478 -.00000253  00000+0  00000+0 0  9992
2 40733   0.0210 346.4517 0002607  80.0103   6.9016  1.00270772 39885
WGS F7 (USA 263)        
1 40746U 15036A   26155.72267251  .00000030  00000+0  00000+0 0  9998
2 40746   0.0027 357.1446 0000155 343.1865 347.9774  1.00271153 39747
INTELSAT 34 (IS-34)     
1 40874U 15039A   26155.91054483 -.00000273  00000+0  00000+0 0  9995
2 40874   0.0092 325.9423 0000275  62.8751 136.8315  1.00269697 39512
EUTELSAT 8 WEST B       
1 40875U 15039B   26155.91998574 -.00000053  00000+0  00000+0 0  9990
2 40875   0.0642 348.2503 0003859  82.5578 145.7544  1.00272149 39539
GSAT-6                  
1 40880U 15041A   26156.15176521 -.00000148  00000+0  00000+0 0  9991
2 40880   1.8893  82.7370 0003370 347.2665 320.7403  1.00271969 39471
INMARSAT 5-F3           
1 40882U 15042A   26156.24233162  .00000063  00000+0  00000+0 0  9994
2 40882   0.0172 354.6529 0000474  73.2293  92.6694  1.00271480 39459
MUOS-4                  
1 40887U 15044A   26156.21919906 -.00000082  00000+0  00000+0 0  9997
2 40887   4.3071  42.1662 0059706   4.6690   0.7625  1.00272432 39448
TJS-1                   
1 40892U 15046A   26156.23747826 -.00000143  00000+0  00000+0 0  9995
2 40892   0.2920  85.0029 0005897 353.0149  56.1925  1.00273252 39457
BEIDOU-3S IGSO-2S       
1 40938U 15053A   26155.76900253 -.00000132  00000+0  00000+0 0  9994
2 40938  49.2418 258.9308 0064952 192.1222 174.7728  1.00262689 39231
SKY MUSTER 1 (NBN1A)    
1 40940U 15054A   26155.72923215  .00000000  00000+0  00000+0 0  9990
2 40940   0.0228 337.7484 0001938 115.9253 202.2548  1.00270772 39139
ARSAT 2                 
1 40941U 15054B   26156.19060999 -.00000213  00000+0  00000+0 0  9991
2 40941   0.0403  64.6689 0002232 359.1184 177.4731  1.00271392 39182
MORELOS 3               
1 40946U 15056A   26156.26069662 -.00000032  00000+0  00000+0 0  9991
2 40946   3.1776  14.7648 0001751 350.8956 228.7746  1.00270947 39164
APSTAR-9                
1 40982U 15059A   26156.30614601 -.00000253  00000+0  00000+0 0  9993
2 40982   0.0159 339.1019 0002120 198.9449 327.9278  1.00271640 39006
TURKSAT 4B              
1 40984U 15060A   26156.21665039  .00000126  00000+0  00000+0 0  9996
2 40984   0.0181 340.9693 0002412  93.1984 307.5092  1.00275728 38979
